[{"OBJECT_NAME":"TDRS 11","OBJECT_ID":"2013-004A","EPOCH":"2026-03-04T14:49:38.633664","MEAN_MOTION":1.00276642,"ECCENTRICITY":0.0003958,"INCLINATION":3.3676,"RA_OF_ASC_NODE":29.356,"ARG_OF_PERICENTER":350.5766,"MEAN_ANOMALY":190.4967,"EPHEMERIS_TYPE":0,"CLASSIFICATION_TYPE":"U","NORAD_CAT_ID":39070,"ELEMENT_SET_NO":999,"REV_AT_EPOCH":4564,"BSTAR":0,"MEAN_MOTION_DOT":7.1e-7,"MEAN_MOTION_DDOT":0},{"OBJECT_NAME":"TDRS 12","OBJECT_ID":"2014-004A","EPOCH":"2026-03-04T04:40:38.610048","MEAN_MOTION":1.00270148,"ECCENTRICITY":0.0003943,"INCLINATION":3.8756,"RA_OF_ASC_NODE":17.2364,"ARG_OF_PERICENTER":267.4092,"MEAN_ANOMALY":266.5662,"EPHEMERIS_TYPE":0,"CLASSIFICATION_TYPE":"U","NORAD_CAT_ID":39504,"ELEMENT_SET_NO":999,"REV_AT_EPOCH":4322,"BSTAR":0,"MEAN_MOTION_DOT":-2.8e-6,"MEAN_MOTION_DDOT":0},{"OBJECT_NAME":"GPM-CORE","OBJECT_ID":"2014-009C","EPOCH":"2026-03-04T18:57:08.141184","MEAN_MOTION":15.44622538,"ECCENTRICITY":0.0012423,"INCLINATION":64.9733,"RA_OF_ASC_NODE":297.9009,"ARG_OF_PERICENTER":264.8033,"MEAN_ANOMALY":95.1689,"EPHEMERIS_TYPE":0,"CLASSIFICATION_TYPE":"U","NORAD_CAT_ID":39574,"ELEMENT_SET_NO":999,"REV_AT_EPOCH":68168,"BSTAR":0.00027771,"MEAN_MOTION_DOT":0.00012803,"MEAN_MOTION_DDOT":0},{"OBJECT_NAME":"MMS 1","OBJECT_ID":"2015-011A","EPOCH":"2026-03-04T22:00:01.999584","MEAN_MOTION":0.28322917,"ECCENTRICITY":0.8412584,"INCLINATION":70.7316,"RA_OF_ASC_NODE":350.2264,"ARG_OF_PERICENTER":165.236,"MEAN_ANOMALY":102.9657,"EPHEMERIS_TYPE":0,"CLASSIFICATION_TYPE":"U","NORAD_CAT_ID":40482,"ELEMENT_SET_NO":999,"REV_AT_EPOCH":133,"BSTAR":0,"MEAN_MOTION_DOT":-1.913e-5,"MEAN_MOTION_DDOT":0},{"OBJECT_NAME":"MMS 2","OBJECT_ID":"2015-011B","EPOCH":"2026-03-04T22:00:01.999584","MEAN_MOTION":0.28322922,"ECCENTRICITY":0.8413315,"INCLINATION":70.7319,"RA_OF_ASC_NODE":350.2285,"ARG_OF_PERICENTER":165.2421,"MEAN_ANOMALY":102.9492,"EPHEMERIS_TYPE":0,"CLASSIFICATION_TYPE":"U","NORAD_CAT_ID":40483,"ELEMENT_SET_NO":999,"REV_AT_EPOCH":133,"BSTAR":0,"MEAN_MOTION_DOT":-1.913e-5,"MEAN_MOTION_DDOT":0},{"OBJECT_NAME":"MMS 3","OBJECT_ID":"2015-011C","EPOCH":"2026-03-04T22:00:01.999584","MEAN_MOTION":0.2832289,"ECCENTRICITY":0.84126,"INCLINATION":70.7342,"RA_OF_ASC_NODE":350.2332,"ARG_OF_PERICENTER":165.2363,"MEAN_ANOMALY":102.9578,"EPHEMERIS_TYPE":0,"CLASSIFICATION_TYPE":"U","NORAD_CAT_ID":40484,"ELEMENT_SET_NO":999,"REV_AT_EPOCH":133,"BSTAR":0,"MEAN_MOTION_DOT":-1.913e-5,"MEAN_MOTION_DDOT":0},{"OBJECT_NAME":"MMS 4","OBJECT_ID":"2015-011D","EPOCH":"2026-03-04T22:00:01.999584","MEAN_MOTION":0.28322889,"ECCENTRICITY":0.8412105,"INCLINATION":70.7324,"RA_OF_ASC_NODE":350.2283,"ARG_OF_PERICENTER":165.2436,"MEAN_ANOMALY":102.9434,"EPHEMERIS_TYPE":0,"CLASSIFICATION_TYPE":"U","NORAD_CAT_ID":40485,"ELEMENT_SET_NO":999,"REV_AT_EPOCH":133,"BSTAR":0,"MEAN_MOTION_DOT":-1.913e-5,"MEAN_MOTION_DDOT":0},{"OBJECT_NAME":"TDRS 13","OBJECT_ID":"2017-047A","EPOCH":"2026-03-04T07:42:38.710368","MEAN_MOTION":1.00272194,"ECCENTRICITY":0.00102159,"INCLINATION":3.4296,"RA_OF_ASC_NODE":0.0631,"ARG_OF_PERICENTER":99.1984,"MEAN_ANOMALY":166.9938,"EPHEMERIS_TYPE":0,"CLASSIFICATION_TYPE":"U","NORAD_CAT_ID":42915,"ELEMENT_SET_NO":999,"REV_AT_EPOCH":3129,"BSTAR":0,"MEAN_MOTION_DOT":-1.1e-6,"MEAN_MOTION_DDOT":0},{"OBJECT_NAME":"NOAA 20 (JPSS-1)","OBJECT_ID":"2017-073A","EPOCH":"2026-03-04T18:04:58.867104","MEAN_MOTION":14.19534546,"ECCENTRICITY":9.82e-5,"INCLINATION":98.7687,"RA_OF_ASC_NODE":4.1898,"ARG_OF_PERICENTER":144.1759,"MEAN_ANOMALY":215.9483,"EPHEMERIS_TYPE":0,"CLASSIFICATION_TYPE":"U","NORAD_CAT_ID":43013,"ELEMENT_SET_NO":999,"REV_AT_EPOCH":42965,"BSTAR":6.9077e-5,"MEAN_MOTION_DOT":1.02e-6,"MEAN_MOTION_DDOT":0}]
